NORAD_CAT_ID,OBJECT_NAME,OBJECT_TYPE,EPOCH,MEAN_MOTION,ECCENTRICITY,INCLINATION,RA_OF_ASC_NODE,ARG_OF_PERICENTER,MEAN_ANOMALY,BSTAR,MEAN_MOTION_DOT,MEAN_MOTION_DDOT,TLE_LINE0,TLE_LINE1,TLE_LINE2,SEMIMAJOR_AXIS,PERIOD,APOGEE,PERIGEE,DECAYED
52368.0,STARLINK-3834,PAYLOAD,2024-07-25 17:01:58,15.08829668,0.0001308,53.217,326.6258,81.0408,279.0732,-2.364e-05,-6.64e-06,0.0,0 STARLINK-3834,1 52368U 22045AP  24207.70970316 -.00000664  00000-0 -23640-4 0  9992,2 52368  53.2170 326.6258 0001308  81.0408 279.0732 15.08829668126540,6917.912,95.438,540.682,538.872,0.0
52368.0,STARLINK-3834,PAYLOAD,2024-07-26 16:52:42,15.08860751,0.0001734,53.2159,322.1614,79.6365,280.4823,0.000217,3.169e-05,0.0,0 STARLINK-3834,1 52368U 22045AP  24208.70327518  .00003169  00000-0  21700-3 0  9998,2 52368  53.2159 322.1614 0001734  79.6365 280.4823 15.08860751126693,6917.817,95.436,540.882,538.482,0.0
52368.0,STARLINK-3834,PAYLOAD,2024-07-27 16:43:32,15.08844881,0.0002256,53.2192,317.6984,73.9872,286.1368,-0.00010509,-1.961e-05,0.0,0 STARLINK-3834,1 52368U 22045AP  24209.69689908 -.00001961  00000-0 -10509-3 0  9996,2 52368  53.2192 317.6984 0002256  73.9872 286.1368 15.08844881126849,6917.865,95.437,541.291,538.17,0.0
52368.0,STARLINK-3834,PAYLOAD,2024-07-28 00:40:27,15.08845579,0.000121,53.2167,316.2148,99.2583,260.8546,-8.5711e-05,-1.652e-05,0.0,0 STARLINK-3834,1 52368U 22045AP  24210.02809180 -.00001652  00000-0 -85711-4 0  9996,2 52368  53.2167 316.2148 0001210  99.2583 260.8546 15.08845579126894,6917.863,95.437,540.565,538.891,0.0
52368.0,STARLINK-3834,PAYLOAD,2024-07-28 13:23:31,15.08844685,0.0001316,53.218,313.8361,102.1171,257.9968,0.00011043,1.47e-05,0.0,0 STARLINK-3834,1 52368U 22045AP  24210.55800184  .00001470  00000-0  11043-3 0  9991,2 52368  53.2180 313.8361 0001316 102.1171 257.9968 15.08844685126974,6917.866,95.437,540.641,538.821,0.0
52368.0,STARLINK-3834,PAYLOAD,2024-07-28 16:34:17,15.08863411,0.0001488,53.2182,313.2399,98.518,261.5981,-7.6154e-05,-1.501e-05,0.0,0 STARLINK-3834,1 52368U 22045AP  24210.69047770 -.00001501  00000-0 -76154-4 0  9992,2 52368  53.2182 313.2399 0001488  98.5180 261.5981 15.08863411126995,6917.809,95.436,540.703,538.644,0.0
52368.0,STARLINK-3834,PAYLOAD,2024-07-29 00:31:13,15.08856005,0.0001808,53.2181,311.7514,89.0544,271.0655,-0.0001197,-2.194e-05,0.0,0 STARLINK-3834,1 52368U 22045AP  24211.02167931 -.00002194  00000-0 -11970-3 0  9995,2 52368  53.2181 311.7514 0001808  89.0544 271.0655 15.08856005127043,6917.831,95.437,540.947,538.446,0.0
52368.0,STARLINK-3834,PAYLOAD,2024-07-29 11:38:55,15.0883912,0.0001435,53.2177,309.6756,92.7255,267.3902,5.663e-05,6.13e-06,0.0,0 STARLINK-3834,1 52368U 22045AP  24211.48536886  .00000613  00000-0  56630-4 0  9999,2 52368  53.2177 309.6756 0001435  92.7255 267.3902 15.08839120127118,6917.883,95.438,540.741,538.755,0.0
52368.0,STARLINK-3834,PAYLOAD,2024-07-29 16:25:04,15.08843345,0.0001585,53.2178,308.7808,105.9481,254.1686,0.0001017,1.331e-05,0.0,0 STARLINK-3834,1 52368U 22045AP  24211.68408432  .00001331  00000-0  10170-3 0  9992,2 52368  53.2178 308.7808 0001585 105.9481 254.1686 15.08843345127141,6917.87,95.437,540.832,538.639,0.0
52368.0,STARLINK-3834,PAYLOAD,2024-07-30 13:05:06,15.0884371,0.0001511,53.218,304.9155,88.824,271.2926,3.1095e-05,2.07e-06,0.0,0 STARLINK-3834,1 52368U 22045AP  24212.54520883  .00000207  00000-0  31095-4 0  9994,2 52368  53.2180 304.9155 0001511  88.8240 271.2926 15.08843710127275,6917.869,95.437,540.779,538.689,0.0
52368.0,STARLINK-3834,PAYLOAD,2024-07-31 12:55:54,15.08829155,0.0001631,53.2187,300.4622,110.392,249.7248,-4.5945e-06,-3.61e-06,0.0,0 STARLINK-3834,1 52368U 22045AP  24213.53882433 -.00000361  00000-0 -45945-5 0  9999,2 52368  53.2187 300.4622 0001631 110.3920 249.7248 15.08829155127422,6917.914,95.438,540.907,538.65,0.0
52368.0,STARLINK-3834,PAYLOAD,2024-07-31 20:52:49,15.08839681,0.0001367,53.2175,298.9703,94.7532,265.3617,2.1839e-05,6e-07,0.0,0 STARLINK-3834,1 52368U 22045AP  24213.87001695  .00000060  00000-0  21839-4 0  9998,2 52368  53.2175 298.9703 0001367  94.7532 265.3617 15.08839681127474,6917.881,95.438,540.692,538.801,0.0
52368.0,STARLINK-3834,PAYLOAD,2024-08-01 12:46:39,15.08854367,0.0001189,53.2162,295.9997,90.5579,269.5549,0.00017368,2.478e-05,0.0,0 STARLINK-3834,1 52368U 22045AP  24214.53240584  .00002478  00000-0  17368-3 0  9990,2 52368  53.2162 295.9997 0001189  90.5579 269.5549 15.08854367127578,6917.836,95.437,540.524,538.879,0.0
52368.0,STARLINK-3834,PAYLOAD,2024-08-01 15:57:25,15.08864299,0.0001051,53.2176,295.4013,72.9949,287.1159,0.0003091,4.638e-05,0.0,0 STARLINK-3834,1 52368U 22045AP  24214.66487488  .00004638  00000-0  30910-3 0  9998,2 52368  53.2176 295.4013 0001051  72.9949 287.1159 15.08864299127590,6917.806,95.436,540.398,538.944,0.0
52368.0,STARLINK-3834,PAYLOAD,2024-08-02 12:37:27,15.08838827,0.0001361,53.2157,291.5365,90.6974,269.4174,4.4296e-05,4.17e-06,0.0,0 STARLINK-3834,1 52368U 22045AP  24215.52601805  .00000417  00000-0  44296-4 0  9999,2 52368  53.2157 291.5365 0001361  90.6974 269.4174 15.08838827127728,6917.884,95.438,540.69,538.807,0.0
52368.0,STARLINK-3834,PAYLOAD,2024-08-02 14:12:51,15.0884117,0.0001406,53.2157,291.2389,85.1711,274.9442,9.3177e-05,1.195e-05,0.0,0 STARLINK-3834,1 52368U 22045AP  24215.59225797  .00001195  00000-0  93177-4 0  9994,2 52368  53.2157 291.2389 0001406  85.1711 274.9442 15.08841170127734,6917.877,95.437,540.714,538.769,0.0
52368.0,STARLINK-3834,PAYLOAD,2024-08-03 04:31:18,15.08849972,0.0001395,53.2154,288.5576,92.1889,267.9263,0.00014924,2.089e-05,0.0,0 STARLINK-3834,1 52368U 22045AP  24216.18841027  .00002089  00000-0  14924-3 0  9995,2 52368  53.2154 288.5576 0001395  92.1889 267.9263 15.08849972127820,6917.85,95.437,540.68,538.75,0.0
52368.0,STARLINK-3834,PAYLOAD,2024-08-03 12:28:13,15.08876753,0.000149,53.2159,287.0751,83.1325,276.9836,0.00080403,0.00012544,0.0,0 STARLINK-3834,1 52368U 22045AP  24216.51959629  .00012544  00000-0  80403-3 0  9992,2 52368  53.2159 287.0751 0001490  83.1325 276.9836 15.08876753127873,6917.768,95.435,540.664,538.602,0.0
52368.0,STARLINK-3834,PAYLOAD,2024-08-03 22:00:32,15.08853688,0.0001679,53.2165,285.2859,95.5789,264.5395,0.00019219,2.773e-05,0.0,0 STARLINK-3834,1 52368U 22045AP  24216.91704077  .00002773  00000-0  19219-3 0  9991,2 52368  53.2165 285.2859 0001679  95.5789 264.5395 15.08853688127931,6917.839,95.437,540.865,538.542,0.0
52368.0,STARLINK-3834,PAYLOAD,2024-08-04 04:22:05,15.08827134,0.0001588,53.2148,284.0986,105.7964,254.3204,-0.00039017,-6.49e-05,0.0,0 STARLINK-3834,1 52368U 22045AP  24217.18200941 -.00006490  00000-0 -39017-3 0  9992,2 52368  53.2148 284.0986 0001588 105.7964 254.3204 15.08827134127975,6917.92,95.438,540.883,538.686,0.0
52368.0,STARLINK-3834,PAYLOAD,2024-08-04 10:43:37,15.08831461,0.0001359,53.2145,282.9146,91.9232,268.1916,-0.00024752,-4.224e-05,0.0,0 STARLINK-3834,1 52368U 22045AP  24217.44696572 -.00004224  00000-0 -24752-3 0  9993,2 52368  53.2145 282.9146 0001359  91.9232 268.1916 15.08831461128014,6917.906,95.438,540.712,538.831,0.0
52368.0,STARLINK-3834,PAYLOAD,2024-08-04 21:51:20,15.08856637,0.000144,53.2131,280.8322,99.2884,260.8271,0.002122,0.00033661,0.0,0 STARLINK-3834,1 52368U 22045AP  24217.91065049  .00033661  00000-0  21220-2 0  9995,2 52368  53.2131 280.8322 0001440  99.2884 260.8271 15.08856637128089,6917.83,95.437,540.691,538.698,0.0
52368.0,STARLINK-3834,PAYLOAD,2024-08-05 08:59:02,15.08853609,0.0001538,53.2137,278.7487,103.7495,256.3668,0.0012764,0.00020092,0.0,0 STARLINK-3834,1 52368U 22045AP  24218.37433072  .00020092  00000-0  12764-2 0  9998,2 52368  53.2137 278.7487 0001538 103.7495 256.3668 15.08853609128154,6917.839,95.437,540.768,538.64,0.0
52368.0,STARLINK-3834,PAYLOAD,2024-08-05 10:34:25,15.08853726,0.0001511,53.2142,278.4524,98.883,261.2334,0.001155,0.00018149,0.0,0 STARLINK-3834,1 52368U 22045AP  24218.44057047  .00018149  00000-0  11550-2 0  9992,2 52368  53.2142 278.4524 0001511  98.8830 261.2334 15.08853726128163,6917.838,95.437,540.749,538.658,0.0
52368.0,STARLINK-3834,PAYLOAD,2024-08-06 08:49:50,15.08832684,0.0001463,53.2139,274.2883,106.6899,253.4254,0.00043835,6.694e-05,0.0,0 STARLINK-3834,1 52368U 22045AP  24219.36794212  .00006694  00000-0  43835-3 0  9990,2 52368  53.2139 274.2883 0001463 106.6899 253.4254 15.08832684128300,6917.903,95.438,540.78,538.756,0.0
52368.0,STARLINK-3834,PAYLOAD,2024-08-06 13:36:00,15.08820988,0.0001367,53.2142,273.3969,73.4941,286.6201,0.00030962,4.641e-05,0.0,0 STARLINK-3834,1 52368U 22045AP  24219.56666772  .00004641  00000-0  30962-3 0  9998,2 52368  53.2142 273.3969 0001367  73.4941 286.6201 15.08820988128338,6917.939,95.439,540.749,538.858,0.0
52368.0,STARLINK-3834,PAYLOAD,2024-08-07 10:16:01,15.08852437,0.0001537,53.2155,269.5312,73.472,286.6441,0.001271,0.00020005,0.0,0 STARLINK-3834,1 52368U 22045AP  24220.42779080  .00020005  00000-0  12710-2 0  9994,2 52368  53.2155 269.5312 0001537  73.4720 286.6441 15.08852437128469,6917.842,95.437,540.771,538.644,0.0
52368.0,STARLINK-3834,PAYLOAD,2024-08-08 10:06:47,15.08868467,0.0001652,53.2158,265.072,75.428,284.6896,0.0010005,0.00015683,0.0,0 STARLINK-3834,1 52368U 22045AP  24221.42138067  .00015683  00000-0  10005-2 0  9990,2 52368  53.2158 265.0720 0001652  75.4280 284.6896 15.08868467128616,6917.793,95.436,540.801,538.516,0.0
52368.0,STARLINK-3834,PAYLOAD,2024-08-09 03:36:01,15.08853264,0.0001582,53.2156,261.7979,95.6096,264.5077,0.0002919,4.362e-05,0.0,0 STARLINK-3834,1 52368U 22045AP  24222.15001735  .00004362  00000-0  29190-3 0  9990,2 52368  53.2156 261.7979 0001582  95.6096 264.5077 15.08853264128723,6917.84,95.437,540.799,538.61,0.0
52368.0,STARLINK-3834,PAYLOAD,2024-08-09 13:08:20,15.08854199,0.0001468,53.2157,260.0142,89.8917,270.2243,0.00020364,2.956e-05,0.0,0 STARLINK-3834,1 52368U 22045AP  24222.54745516  .00002956  00000-0  20364-3 0  9996,2 52368  53.2157 260.0142 0001468  89.8917 270.2243 15.08854199128781,6917.837,95.437,540.718,538.686,0.0
